CCSDS_OMM_VERS = 2.0
CREATION_DATE  = 
ORIGINATOR     = 

OBJECT_NAME    = KUIPER-00191
OBJECT_ID      = 2025-301L
CENTER_NAME    = EARTH
REF_FRAME      = TEME
TIME_SYSTEM    = UTC
MEAN_ELEMENT_THEORY = SGP/SGP4

EPOCH          = 2026-01-11T12:23:34.281600
MEAN_MOTION    = 15.35882385
ECCENTRICITY   = .00065048
INCLINATION    = 51.8696
RA_OF_ASC_NODE = 341.5619
ARG_OF_PERICENTER = 178.4019
MEAN_ANOMALY   = 181.6989

EPHEMERIS_TYPE = 0
CLASSIFICATION_TYPE = U
NORAD_CAT_ID   = 67143
ELEMENT_SET_NO = 999
REV_AT_EPOCH   = 497
BSTAR          = .89604333E-3
MEAN_MOTION_DOT = .31538E-3
MEAN_MOTION_DDOT = 0

CCSDS_OMM_VERS = 2.0
CREATION_DATE  = 
ORIGINATOR     = 

OBJECT_NAME    = KUIPER-00196
OBJECT_ID      = 2025-301M
CENTER_NAME    = EARTH
REF_FRAME      = TEME
TIME_SYSTEM    = UTC
MEAN_ELEMENT_THEORY = SGP/SGP4

EPOCH          = 2026-01-11T15:10:39.179424
MEAN_MOTION    = 15.36598517
ECCENTRICITY   = .00037635
INCLINATION    = 51.8732
RA_OF_ASC_NODE = 340.8458
ARG_OF_PERICENTER = 143.2357
MEAN_ANOMALY   = 216.8888

EPHEMERIS_TYPE = 0
CLASSIFICATION_TYPE = U
NORAD_CAT_ID   = 67144
ELEMENT_SET_NO = 999
REV_AT_EPOCH   = 496
BSTAR          = .82508847E-3
MEAN_MOTION_DOT = .29673E-3
MEAN_MOTION_DDOT = 0

CCSDS_OMM_VERS = 2.0
CREATION_DATE  = 
ORIGINATOR     = 

OBJECT_NAME    = KUIPER-00204
OBJECT_ID      = 2025-301N
CENTER_NAME    = EARTH
REF_FRAME      = TEME
TIME_SYSTEM    = UTC
MEAN_ELEMENT_THEORY = SGP/SGP4

EPOCH          = 2026-01-11T14:00:01.999872
MEAN_MOTION    = 15.26390524
ECCENTRICITY   = .00054825
INCLINATION    = 51.8804
RA_OF_ASC_NODE = 341.2787
ARG_OF_PERICENTER = 111.2685
MEAN_ANOMALY   = 218.1507

EPHEMERIS_TYPE = 0
CLASSIFICATION_TYPE = U
NORAD_CAT_ID   = 67145
ELEMENT_SET_NO = 999
REV_AT_EPOCH   = 506
BSTAR          = -.50125702E-1
MEAN_MOTION_DOT = -.1216401E-1
MEAN_MOTION_DDOT = 0

CCSDS_OMM_VERS = 2.0
CREATION_DATE  = 
ORIGINATOR     = 

OBJECT_NAME    = KUIPER-00210
OBJECT_ID      = 2025-301P
CENTER_NAME    = EARTH
REF_FRAME      = TEME
TIME_SYSTEM    = UTC
MEAN_ELEMENT_THEORY = SGP/SGP4

EPOCH          = 2026-01-11T12:47:48.187104
MEAN_MOTION    = 15.34857949
ECCENTRICITY   = .00105296
INCLINATION    = 51.8611
RA_OF_ASC_NODE = 341.6543
ARG_OF_PERICENTER = 203.6523
MEAN_ANOMALY   = 156.3980

EPHEMERIS_TYPE = 0
CLASSIFICATION_TYPE = U
NORAD_CAT_ID   = 67146
ELEMENT_SET_NO = 999
REV_AT_EPOCH   = 511
BSTAR          = .74417889E-3
MEAN_MOTION_DOT = .25282E-3
MEAN_MOTION_DDOT = 0

CCSDS_OMM_VERS = 2.0
CREATION_DATE  = 
ORIGINATOR     = 

OBJECT_NAME    = KUIPER-00221
OBJECT_ID      = 2025-301Q
CENTER_NAME    = EARTH
REF_FRAME      = TEME
TIME_SYSTEM    = UTC
MEAN_ELEMENT_THEORY = SGP/SGP4

EPOCH          = 2026-01-11T14:00:01.999872
MEAN_MOTION    = 15.35261119
ECCENTRICITY   = .0004813
INCLINATION    = 51.8733
RA_OF_ASC_NODE = 341.1437
ARG_OF_PERICENTER = 163.4401
MEAN_ANOMALY   = 256.2980

EPHEMERIS_TYPE = 0
CLASSIFICATION_TYPE = U
NORAD_CAT_ID   = 67147
ELEMENT_SET_NO = 999
REV_AT_EPOCH   = 444
BSTAR          = -.10097886E-1
MEAN_MOTION_DOT = -.336418E-2
MEAN_MOTION_DDOT = 0

CCSDS_OMM_VERS = 2.0
CREATION_DATE  = 
ORIGINATOR     = 

OBJECT_NAME    = KUIPER-00232
OBJECT_ID      = 2025-301R
CENTER_NAME    = EARTH
REF_FRAME      = TEME
TIME_SYSTEM    = UTC
MEAN_ELEMENT_THEORY = SGP/SGP4

EPOCH          = 2026-01-11T14:54:07.670304
MEAN_MOTION    = 15.37212686
ECCENTRICITY   = .00030222
INCLINATION    = 51.8748
RA_OF_ASC_NODE = 340.7709
ARG_OF_PERICENTER = 90.2387
MEAN_ANOMALY   = 269.8946

EPHEMERIS_TYPE = 0
CLASSIFICATION_TYPE = U
NORAD_CAT_ID   = 67148
ELEMENT_SET_NO = 999
REV_AT_EPOCH   = 496
BSTAR          = .74255126E-3
MEAN_MOTION_DOT = .27195E-3
MEAN_MOTION_DDOT = 0

CCSDS_OMM_VERS = 2.0
CREATION_DATE  = 
ORIGINATOR     = 

OBJECT_NAME    = KUIPER-00241
OBJECT_ID      = 2025-301S
CENTER_NAME    = EARTH
REF_FRAME      = TEME
TIME_SYSTEM    = UTC
MEAN_ELEMENT_THEORY = SGP/SGP4

EPOCH          = 2026-01-11T07:16:49.574784
MEAN_MOTION    = 15.36816423
ECCENTRICITY   = .00027716
INCLINATION    = 51.8758
RA_OF_ASC_NODE = 342.3899
ARG_OF_PERICENTER = 134.7039
MEAN_ANOMALY   = 225.4174

EPHEMERIS_TYPE = 0
CLASSIFICATION_TYPE = U
NORAD_CAT_ID   = 67149
ELEMENT_SET_NO = 999
REV_AT_EPOCH   = 524
BSTAR          = .92262807E-3
MEAN_MOTION_DOT = .33477E-3
MEAN_MOTION_DDOT = 0

CCSDS_OMM_VERS = 2.0
CREATION_DATE  = 
ORIGINATOR     = 

OBJECT_NAME    = KUIPER-00245
OBJECT_ID      = 2025-301T
CENTER_NAME    = EARTH
REF_FRAME      = TEME
TIME_SYSTEM    = UTC
MEAN_ELEMENT_THEORY = SGP/SGP4

EPOCH          = 2026-01-11T14:00:01.999872
MEAN_MOTION    = 15.27143892
ECCENTRICITY   = .00080101
INCLINATION    = 51.8758
RA_OF_ASC_NODE = 341.3836
ARG_OF_PERICENTER = 175.9502
MEAN_ANOMALY   = 105.6571

EPHEMERIS_TYPE = 0
CLASSIFICATION_TYPE = U
NORAD_CAT_ID   = 67150
ELEMENT_SET_NO = 999
REV_AT_EPOCH   = 444
BSTAR          = -.58843788E-1
MEAN_MOTION_DOT = -.1439611E-1
MEAN_MOTION_DDOT = 0

CCSDS_OMM_VERS = 2.0
CREATION_DATE  = 
ORIGINATOR     = 

OBJECT_NAME    = KUIPER-00246
OBJECT_ID      = 2025-301U
CENTER_NAME    = EARTH
REF_FRAME      = TEME
TIME_SYSTEM    = UTC
MEAN_ELEMENT_THEORY = SGP/SGP4

EPOCH          = 2026-01-11T15:12:00.372960
MEAN_MOTION    = 15.36568306
ECCENTRICITY   = .00037606
INCLINATION    = 51.8752
RA_OF_ASC_NODE = 340.8518
ARG_OF_PERICENTER = 164.2212
MEAN_ANOMALY   = 195.8892

EPHEMERIS_TYPE = 0
CLASSIFICATION_TYPE = U
NORAD_CAT_ID   = 67151
ELEMENT_SET_NO = 999
REV_AT_EPOCH   = 498
BSTAR          = .10210339E-2
MEAN_MOTION_DOT = .36811E-3
MEAN_MOTION_DDOT = 0

CCSDS_OMM_VERS = 2.0
CREATION_DATE  = 
ORIGINATOR     = 

OBJECT_NAME    = KUIPER-00247
OBJECT_ID      = 2025-301V
CENTER_NAME    = EARTH
REF_FRAME      = TEME
TIME_SYSTEM    = UTC
MEAN_ELEMENT_THEORY = SGP/SGP4

EPOCH          = 2026-01-11T14:27:00.817920
MEAN_MOTION    = 15.34540659
ECCENTRICITY   = .00111315
INCLINATION    = 51.8634
RA_OF_ASC_NODE = 341.3705
ARG_OF_PERICENTER = 205.8908
MEAN_ANOMALY   = 154.1521

EPHEMERIS_TYPE = 0
CLASSIFICATION_TYPE = U
NORAD_CAT_ID   = 67152
ELEMENT_SET_NO = 999
REV_AT_EPOCH   = 495
BSTAR          = .77033227E-3
MEAN_MOTION_DOT = .25925E-3
MEAN_MOTION_DDOT = 0

CCSDS_OMM_VERS = 2.0
CREATION_DATE  = 
ORIGINATOR     = 

OBJECT_NAME    = KUIPER-00248
OBJECT_ID      = 2025-301W
CENTER_NAME    = EARTH
REF_FRAME      = TEME
TIME_SYSTEM    = UTC
MEAN_ELEMENT_THEORY = SGP/SGP4

EPOCH          = 2026-01-11T12:35:16.792224
MEAN_MOTION    = 15.35295961
ECCENTRICITY   = .00076987
INCLINATION    = 51.8699
RA_OF_ASC_NODE = 341.6126
ARG_OF_PERICENTER = 193.0064
MEAN_ANOMALY   = 167.0724

EPHEMERIS_TYPE = 0
CLASSIFICATION_TYPE = U
NORAD_CAT_ID   = 67153
ELEMENT_SET_NO = 999
REV_AT_EPOCH   = 511
BSTAR          = .81011054E-3
MEAN_MOTION_DOT = .27936E-3
MEAN_MOTION_DDOT = 0

CCSDS_OMM_VERS = 2.0
CREATION_DATE  = 
ORIGINATOR     = 

OBJECT_NAME    = KUIPER-00249
OBJECT_ID      = 2025-301X
CENTER_NAME    = EARTH
REF_FRAME      = TEME
TIME_SYSTEM    = UTC
MEAN_ELEMENT_THEORY = SGP/SGP4

EPOCH          = 2026-01-11T03:08:03.408000
MEAN_MOTION    = 15.35653859
ECCENTRICITY   = .00082617
INCLINATION    = 51.8666
RA_OF_ASC_NODE = 343.4704
ARG_OF_PERICENTER = 189.8645
MEAN_ANOMALY   = 170.2180

EPHEMERIS_TYPE = 0
CLASSIFICATION_TYPE = U
NORAD_CAT_ID   = 67154
ELEMENT_SET_NO = 999
REV_AT_EPOCH   = 488
BSTAR          = .85078592E-3
MEAN_MOTION_DOT = .2971E-3
MEAN_MOTION_DDOT = 0

