KUIPER-00191            
1 67143U 25301L   26011.51636900  .00031538  00000+0  89604-3 0  9991
2 67143  51.8696 341.5619 0006504 178.4019 181.6989 15.35882385  4972
KUIPER-00196            
1 67144U 25301M   26011.63239791  .00029673  00000+0  82509-3 0  9996
2 67144  51.8732 340.8458 0003763 143.2357 216.8888 15.36598517  4966
KUIPER-00204            
1 67145U 25301N   26011.58335648 -.01216401  00000+0 -50126-1 0  9997
2 67145  51.8804 341.2787 0005482 111.2685 218.1507 15.26390524  5068
KUIPER-00210            
1 67146U 25301P   26011.53319661  .00025282  00000+0  74418-3 0  9994
2 67146  51.8611 341.6543 0010529 203.6523 156.3980 15.34857949  5116
KUIPER-00221            
1 67147U 25301Q   26011.58335648 -.00336418  00000+0 -10098-1 0  9993
2 67147  51.8733 341.1437 0004813 163.4401 256.2980 15.35261119  4440
KUIPER-00232            
1 67148U 25301R   26011.62092211  .00027195  00000+0  74255-3 0  9999
2 67148  51.8748 340.7709 0003022  90.2387 269.8946 15.37212686  4961
KUIPER-00241            
1 67149U 25301S   26011.30335156  .00033477  00000+0  92263-3 0  9992
2 67149  51.8758 342.3899 0002771 134.7039 225.4174 15.36816423  5240
KUIPER-00245            
1 67150U 25301T   26011.58335648 -.01439611  00000+0 -58844-1 0  9998
2 67150  51.8758 341.3836 0008010 175.9502 105.6571 15.27143892  4440
KUIPER-00246            
1 67151U 25301U   26011.63333765  .00036811  00000+0  10210-2 0  9991
2 67151  51.8752 340.8518 0003760 164.2212 195.8892 15.36568306  4989
KUIPER-00247            
1 67152U 25301V   26011.60209280  .00025925  00000+0  77033-3 0  9994
2 67152  51.8634 341.3705 0011131 205.8908 154.1521 15.34540659  4951
KUIPER-00248            
1 67153U 25301W   26011.52449991  .00027936  00000+0  81011-3 0  9996
2 67153  51.8699 341.6126 0007698 193.0064 167.0724 15.35295961  5118
KUIPER-00249            
1 67154U 25301X   26011.13059500  .00029710  00000+0  85079-3 0  9997
2 67154  51.8666 343.4704 0008261 189.8645 170.2180 15.35653859  4889
